{
    "links": {
        "self": "http://www.neowsapp.com/rest/v1/neo/3648736?api_key=iIulBulltgU6a56xZRHN4H3l9WmuAYTsLGpBGhQ2"
    },
    "id": "3648736",
    "neo_reference_id": "3648736",
    "name": "(2013 TC)",
    "designation": "2013 TC",
    "nasa_jpl_url": "http://ssd.jpl.nasa.gov/sbdb.cgi?sstr=3648736",
    "absolute_magnitude_h": 23.4,
    "estimated_diameter": {
        "kilometers": {
            "estimated_diameter_min": 0.0555334912,
            "estimated_diameter_max": 0.1241766613
        },
        "meters": {
            "estimated_diameter_min": 55.5334911581,
            "estimated_diameter_max": 124.1766612574
        },
        "miles": {
            "estimated_diameter_min": 0.0345069009,
            "estimated_diameter_max": 0.0771597762
        },
        "feet": {
            "estimated_diameter_min": 182.1964991311,
            "estimated_diameter_max": 407.4037573197
        }
    },
    "is_potentially_hazardous_asteroid": false,
    "close_approach_data": [
        {
            "close_approach_date": "2013-09-11",
            "close_approach_date_full": "2013-Sep-11 00:01",
            "epoch_date_close_approach": 1378857660000,
            "relative_velocity": {
                "kilometers_per_second": "6.2482018716",
                "kilometers_per_hour": "22493.5267376511",
                "miles_per_hour": "13976.6027665144"
            },
            "miss_distance": {
                "astronomical": "0.1814957364",
                "lunar": "70.6018414596",
                "kilometers": "27151375.579521468",
                "miles": "16871082.4626255384"
            },
            "orbiting_body": "Earth"
        }
    ],
    "orbital_data": {
        "orbit_id": "7",
        "orbit_determination_date": "2017-04-06 08:44:28",
        "first_observation_date": "2013-10-01",
        "last_observation_date": "2013-10-13",
        "data_arc_in_days": 12,
        "observations_used": 20,
        "orbit_uncertainty": "9",
        "minimum_orbit_intersection": ".180578",
        "jupiter_tisserand_invariant": "3.010",
        "epoch_osculation": "2456571.5",
        "eccentricity": ".5893322504311355",
        "semi_major_axis": "2.853602928022474",
        "inclination": "7.339030117026994",
        "ascending_node_longitude": "199.1635744280391",
        "orbital_period": "1760.713685131901",
        "perihelion_distance": "1.171882692614112",
        "perihelion_argument": "145.3812222322151",
        "aphelion_distance": "4.535323163430836",
        "perihelion_time": "2456541.887280286923",
        "mean_anomaly": "6.054692018770274",
        "mean_motion": ".2044625443875227",
        "equinox": "J2000",
        "orbit_class": {
            "orbit_class_type": "AMO",
            "orbit_class_description": "Near-Earth asteroid orbits similar to that of 1221 Amor",
            "orbit_class_range": "1.017 AU < q (perihelion) < 1.3 AU"
        }
    },
    "is_sentry_object": false
}